NORAD_CAT_ID,OBJECT_NAME,OBJECT_TYPE,EPOCH,MEAN_MOTION,ECCENTRICITY,INCLINATION,RA_OF_ASC_NODE,ARG_OF_PERICENTER,MEAN_ANOMALY,BSTAR,MEAN_MOTION_DOT,MEAN_MOTION_DDOT,TLE_LINE0,TLE_LINE1,TLE_LINE2,SEMIMAJOR_AXIS,PERIOD,APOGEE,PERIGEE,DECAYED
49732.0,STARLINK-3246,PAYLOAD,2023-07-17 22:32:15,15.08839247,8.89e-05,53.2162,174.5133,81.8584,278.2509,5.8403e-05,6.42e-06,0.0,0 STARLINK-3246,1 49732U 21115J   23198.93907258  .00000642  00000-0  58403-4 0  9997,2 49732  53.2162 174.5133 0000889  81.8584 278.2509 15.08839247 90705,6917.883,95.438,540.363,539.133,0.0
49732.0,STARLINK-3246,PAYLOAD,2023-07-18 09:39:56,15.08850339,9.47e-05,53.2165,172.4309,89.5988,270.5112,0.00012489,1.701e-05,0.0,0 STARLINK-3246,1 49732U 21115J   23199.40274264  .00001701  00000-0  12489-3 0  9994,2 49732  53.2165 172.4309 0000947  89.5988 270.5112 15.08850339 90775,6917.849,95.437,540.369,539.059,0.0
49732.0,STARLINK-3246,PAYLOAD,2023-07-18 22:23:03,15.08836236,0.000174,53.2143,170.051,94.8602,265.2589,5.0256e-05,5.12e-06,0.0,0 STARLINK-3246,1 49732U 21115J   23199.93267513  .00000512  00000-0  50256-4 0  9995,2 49732  53.2143 170.0510 0001740  94.8602 265.2589 15.08836236 90851,6917.892,95.438,540.961,538.553,0.0
49732.0,STARLINK-3246,PAYLOAD,2023-07-20 20:29:14,15.08833415,0.000105,53.2171,161.4306,100.5247,259.5863,7.268e-05,8.69e-06,0.0,0 STARLINK-3246,1 49732U 21115J   23201.85363958  .00000869  00000-0  72680-4 0  9990,2 49732  53.2171 161.4306 0001050 100.5247 259.5863 15.08833415 91143,6917.901,95.438,540.492,539.039,0.0
49732.0,STARLINK-3246,PAYLOAD,2023-07-23 23:12:22,15.08837368,0.000102,53.2165,147.4528,93.4159,266.695,2.3846e-06,-2.5e-06,0.0,0 STARLINK-3246,1 49732U 21115J   23204.96692532 -.00000250  00000-0  23846-5 0  9994,2 49732  53.2165 147.4528 0001020  93.4159 266.6950 15.08837368 90501,6917.888,95.438,540.459,539.048,0.0
49732.0,STARLINK-3246,PAYLOAD,2023-07-24 23:03:09,15.0884073,0.000107,53.2179,142.9941,85.2507,274.8607,1.5754e-05,-3.7e-07,0.0,0 STARLINK-3246,1 49732U 21115J   23205.96052462 -.00000037  00000-0  15754-4 0  9998,2 49732  53.2179 142.9941 0001070  85.2507 274.8607 15.08840730 90659,6917.878,95.438,540.483,539.003,0.0
49732.0,STARLINK-3246,PAYLOAD,2023-07-26 02:04:42,15.08844995,0.0001234,53.2167,137.9377,91.9344,268.1789,0.00012834,1.756e-05,0.0,0 STARLINK-3246,1 49732U 21115J   23207.08659931  .00001756  00000-0  12834-3 0  9990,2 49732  53.2167 137.9377 0001234  91.9344 268.1789 15.08844995 90821,6917.865,95.437,540.584,538.876,0.0
49732.0,STARLINK-3246,PAYLOAD,2023-07-27 01:55:28,15.08852374,0.0001066,53.2166,133.4772,87.8934,272.218,0.00015343,2.156e-05,0.0,0 STARLINK-3246,1 49732U 21115J   23208.08019124  .00002156  00000-0  15343-3 0  9998,2 49732  53.2166 133.4772 0001066  87.8934 272.2180 15.08852374 92083,6917.843,95.437,540.445,538.97,0.0
49732.0,STARLINK-3246,PAYLOAD,2023-07-27 05:06:14,15.08855908,0.0001131,53.2176,132.8839,89.7861,270.3261,0.0001871,2.692e-05,0.0,0 STARLINK-3246,1 49732U 21115J   23208.21266789  .00002692  00000-0  18710-3 0  9990,2 49732  53.2176 132.8839 0001131  89.7861 270.3261 15.08855908 90997,6917.832,95.437,540.479,538.914,0.0
49732.0,STARLINK-3246,PAYLOAD,2023-07-27 19:24:45,15.08828634,0.0001295,53.2172,130.207,98.5499,261.564,-0.00010404,-1.943e-05,0.0,0 STARLINK-3246,1 49732U 21115J   23208.80885462 -.00001943  00000-0 -10404-3 0  9992,2 49732  53.2172 130.2070 0001295  98.5499 261.5640 15.08828634 91088,6917.915,95.438,540.676,538.884,0.0
49732.0,STARLINK-3246,PAYLOAD,2023-07-28 00:10:54,15.08825392,0.0001371,53.2185,129.3155,106.9677,253.1465,-0.00012443,-2.267e-05,0.0,0 STARLINK-3246,1 49732U 21115J   23209.00757790 -.00002267  00000-0 -12443-3 0  9992,2 49732  53.2185 129.3155 0001371 106.9677 253.1465 15.08825392 92229,6917.925,95.438,540.738,538.842,0.0
49732.0,STARLINK-3246,PAYLOAD,2023-07-28 01:46:17,15.08824968,0.0001213,53.2176,129.0169,105.9944,254.1182,-0.00013204,-2.388e-05,0.0,0 STARLINK-3246,1 49732U 21115J   23209.07381871 -.00002388  00000-0 -13204-3 0  9992,2 49732  53.2176 129.0169 0001213 105.9944 254.1182 15.08824968 91125,6917.926,95.439,540.63,538.952,0.0
49732.0,STARLINK-3246,PAYLOAD,2023-07-29 01:37:03,15.08849395,0.0001006,53.2178,124.5589,87.7234,272.3873,4.1913e-05,3.79e-06,0.0,0 STARLINK-3246,1 49732U 21115J   23210.06740301  .00000379  00000-0  41913-4 0  9995,2 49732  53.2178 124.5589 0001006  87.7234 272.3873 15.08849395 92381,6917.852,95.437,540.413,539.021,0.0
49732.0,STARLINK-3246,PAYLOAD,2023-07-29 17:30:55,15.08829459,0.0001099,53.2176,121.5838,90.1388,269.973,0.00019206,2.769e-05,0.0,0 STARLINK-3246,1 49732U 21115J   23210.72981467  .00002769  00000-0  19206-3 0  9992,2 49732  53.2176 121.5838 0001099  90.1388 269.9730 15.08829459 92487,6917.913,95.438,540.538,539.017,0.0
49732.0,STARLINK-3246,PAYLOAD,2023-07-30 01:27:51,15.08844372,0.0001203,53.2168,120.0975,75.6405,284.472,0.00036718,5.561e-05,0.0,0 STARLINK-3246,1 49732U 21115J   23211.06101160  .00005561  00000-0  36718-3 0  9994,2 49732  53.2168 120.0975 0001203  75.6405 284.4720 15.08844372 92537,6917.867,95.437,540.564,538.9,0.0
49732.0,STARLINK-3246,PAYLOAD,2023-07-31 01:18:38,15.08849673,0.000126,53.2163,115.6368,75.5164,284.5968,0.00016605,2.356e-05,0.0,0 STARLINK-3246,1 49732U 21115J   23212.05460738  .00002356  00000-0  16605-3 0  9995,2 49732  53.2163 115.6368 0001260  75.5164 284.5968 15.08849673 92682,6917.851,95.437,540.587,538.844,0.0
49732.0,STARLINK-3246,PAYLOAD,2023-07-31 17:12:29,15.08836592,0.0001266,53.2171,112.6645,80.2597,279.8538,3.1082e-05,2.07e-06,0.0,0 STARLINK-3246,1 49732U 21115J   23212.71701382  .00000207  00000-0  31082-4 0  9991,2 49732  53.2171 112.6645 0001266  80.2597 279.8538 15.08836592 92782,6917.891,95.438,540.632,538.88,0.0
49732.0,STARLINK-3246,PAYLOAD,2023-08-01 23:24:49,15.08847621,0.0001205,53.2165,107.0118,90.8215,269.2915,0.00018051,2.587e-05,0.0,0 STARLINK-3246,1 49732U 21115J   23213.97557172  .00002587  00000-0  18051-3 0  9999,2 49732  53.2165 107.0118 0001205  90.8215 269.2915 15.08847621 92973,6917.857,95.437,540.556,538.888,0.0
49732.0,STARLINK-3246,PAYLOAD,2023-08-03 02:26:22,15.08857198,0.0001333,53.2171,101.957,88.224,271.8905,0.00010894,1.447e-05,0.0,0 STARLINK-3246,1 49732U 21115J   23215.10164513  .00001447  00000-0  10894-3 0  9990,2 49732  53.2171 101.9570 0001333  88.2240 271.8905 15.08857198 93144,6917.828,95.436,540.615,538.771,0.0
49732.0,STARLINK-3246,PAYLOAD,2023-08-03 21:31:00,15.08839243,0.0001228,53.2162,98.3882,92.6139,267.4993,2.1747e-05,5.8e-07,0.0,0 STARLINK-3246,1 49732U 21115J   23215.89653641  .00000058  00000-0  21747-4 0  9998,2 49732  53.2162  98.3882 0001228  92.6139 267.4993 15.08839243 93260,6917.883,95.438,540.597,538.898,0.0
49732.0,STARLINK-3246,PAYLOAD,2023-08-04 21:21:48,15.0882717,0.0001222,53.216,93.9274,101.5278,258.5852,-0.00015328,-2.726e-05,0.0,0 STARLINK-3246,1 49732U 21115J   23216.89014696 -.00002726  00000-0 -15328-3 0  9993,2 49732  53.2160  93.9274 0001222 101.5278 258.5852 15.08827170 93410,6917.92,95.438,540.63,538.939,0.0
49732.0,STARLINK-3246,PAYLOAD,2023-08-05 18:01:49,15.08842513,0.0001494,53.2149,90.0621,106.1346,253.9811,0.00024029,3.539e-05,0.0,0 STARLINK-3246,1 49732U 21115J   23217.75126470  .00003539  00000-0  24029-3 0  9992,2 49732  53.2149  90.0621 0001494 106.1346 253.9811 15.08842513 93545,6917.873,95.437,540.771,538.704,0.0
49732.0,STARLINK-3246,PAYLOAD,2023-08-06 09:55:40,15.08841585,0.0001125,53.2161,87.0922,86.7813,273.3308,0.00032477,4.885e-05,0.0,0 STARLINK-3246,1 49732U 21115J   23218.41366703  .00004885  00000-0  32477-3 0  9992,2 49732  53.2161  87.0922 0001125  86.7813 273.3308 15.08841585 93648,6917.876,95.437,540.519,538.962,0.0
49732.0,STARLINK-3246,PAYLOAD,2023-08-06 17:52:36,15.08831026,0.0001217,53.215,85.6036,98.118,261.995,-0.00010313,-1.928e-05,0.0,0 STARLINK-3246,1 49732U 21115J   23218.74487030 -.00001928  00000-0 -10313-3 0  9997,2 49732  53.2150  85.6036 0001217  98.1180 261.9950 15.08831026 93692,6917.908,95.438,540.615,538.931,0.0
49732.0,STARLINK-3246,PAYLOAD,2023-08-07 08:11:04,15.08847946,9.81e-05,53.2157,82.9268,99.0551,261.0552,0.00035322,5.339e-05,0.0,0 STARLINK-3246,1 49732U 21115J   23219.34102528  .00005339  00000-0  35322-3 0  9995,2 49732  53.2157  82.9268 0000981  99.0551 261.0552 15.08847946 93782,6917.856,95.437,540.4,539.042,0.0
49732.0,STARLINK-3246,PAYLOAD,2023-08-08 00:04:55,15.08869075,9.7e-05,53.2156,79.9528,100.4797,259.6305,0.0010421,0.00016349,0.0,0 STARLINK-3246,1 49732U 21115J   23220.00341843  .00016349  00000-0  10421-2 0  9990,2 49732  53.2156  79.9528 0000970 100.4797 259.6305 15.08869075 93880,6917.792,95.436,540.328,538.985,0.0
49732.0,STARLINK-3246,PAYLOAD,2023-08-08 09:37:14,15.08853312,0.0001099,53.2146,78.1707,81.6363,278.4754,0.00040904,6.23e-05,0.0,0 STARLINK-3246,1 49732U 21115J   23220.40085953  .00006230  00000-0  40904-3 0  9999,2 49732  53.2146  78.1707 0001099  81.6363 278.4754 15.08853312 93942,6917.84,95.437,540.465,538.944,0.0
49732.0,STARLINK-3246,PAYLOAD,2023-08-08 23:55:42,15.0885192,9.85e-05,53.2157,75.4924,84.3198,275.7907,0.00053237,8.198e-05,0.0,0 STARLINK-3246,1 49732U 21115J   23220.99701853  .00008198  00000-0  53237-3 0  9995,2 49732  53.2157  75.4924 0000985  84.3198 275.7907 15.08851920 94038,6917.844,95.437,540.39,539.028,0.0
49732.0,STARLINK-3246,PAYLOAD,2023-08-09 09:28:01,15.08844328,0.0001253,53.2153,73.7094,74.9043,285.2088,0.00063358,9.811e-05,0.0,0 STARLINK-3246,1 49732U 21115J   23221.39446116  .00009811  00000-0  63358-3 0  9996,2 49732  53.2153  73.7094 0001253  74.9043 285.2088 15.08844328 94092,6917.867,95.437,540.599,538.865,0.0
49732.0,STARLINK-3246,PAYLOAD,2023-08-10 09:18:48,15.088444,0.0001186,53.2158,69.2463,97.4237,262.689,0.00042114,6.422e-05,0.0,0 STARLINK-3246,1 49732U 21115J   23222.38806142  .00006422  00000-0  42114-3 0  9997,2 49732  53.2158  69.2463 0001186  97.4237 262.6890 15.08844400 94245,6917.867,95.437,540.552,538.911,0.0
